[{"OBJECT_NAME":"JINJUSAT-1B","OBJECT_ID":"2025-052A","EPOCH":"2026-03-09T15:55:38.242848","MEAN_MOTION":15.30194857,"ECCENTRICITY":0.00055504,"INCLINATION":97.4113,"RA_OF_ASC_NODE":325.4613,"ARG_OF_PERICENTER":82.193,"MEAN_ANOMALY":277.9941,"EPHEMERIS_TYPE":0,"CLASSIFICATION_TYPE":"U","NORAD_CAT_ID":63210,"ELEMENT_SET_NO":999,"REV_AT_EPOCH":5486,"BSTAR":0.00068430401,"MEAN_MOTION_DOT":0.00019955,"MEAN_MOTION_DDOT":0},{"OBJECT_NAME":"STARLINK-35356","OBJECT_ID":"2025-221P","EPOCH":"2026-03-09T08:22:21.093600","MEAN_MOTION":15.30201389,"ECCENTRICITY":0.00012478,"INCLINATION":53.1576,"RA_OF_ASC_NODE":89.7528,"ARG_OF_PERICENTER":83.8441,"MEAN_ANOMALY":276.2702,"EPHEMERIS_TYPE":0,"CLASSIFICATION_TYPE":"U","NORAD_CAT_ID":65836,"ELEMENT_SET_NO":999,"REV_AT_EPOCH":2468,"BSTAR":0.00047241541,"MEAN_MOTION_DOT":0.00013659,"MEAN_MOTION_DDOT":0}]
